[{"OBJECT_NAME":"BRITE-AUSTRIA","OBJECT_ID":"2013-009F","EPOCH":"2026-03-09T11:09:59.101632","MEAN_MOTION":14.3649602,"ECCENTRICITY":0.00103487,"INCLINATION":98.3955,"RA_OF_ASC_NODE":250.3783,"ARG_OF_PERICENTER":171.7863,"MEAN_ANOMALY":188.3495,"EPHEMERIS_TYPE":0,"CLASSIFICATION_TYPE":"U","NORAD_CAT_ID":39091,"ELEMENT_SET_NO":999,"REV_AT_EPOCH":68273,"BSTAR":0.00011657143,"MEAN_MOTION_DOT":3.0e-6,"MEAN_MOTION_DDOT":0},{"OBJECT_NAME":"COSMOS 1023","OBJECT_ID":"1978-063A","EPOCH":"2026-03-09T21:12:40.828896","MEAN_MOTION":14.37571044,"ECCENTRICITY":0.0015167,"INCLINATION":74.0737,"RA_OF_ASC_NODE":270.6318,"ARG_OF_PERICENTER":93.965,"MEAN_ANOMALY":266.3238,"EPHEMERIS_TYPE":0,"CLASSIFICATION_TYPE":"U","NORAD_CAT_ID":10961,"ELEMENT_SET_NO":999,"REV_AT_EPOCH":49866,"BSTAR":7.2410842e-5,"MEAN_MOTION_DOT":1.91e-6,"MEAN_MOTION_DDOT":0}]
